OBJECT_NAME,OBJECT_ID,EPOCH,MEAN_MOTION,ECCENTRICITY,INCLINATION,RA_OF_ASC_NODE,ARG_OF_PERICENTER,MEAN_ANOMALY,EPHEMERIS_TYPE,CLASSIFICATION_TYPE,NORAD_CAT_ID,ELEMENT_SET_NO,REV_AT_EPOCH,BSTAR,MEAN_MOTION_DOT,MEAN_MOTION_DDOT
ONEWEB-0162,2021-025Q,2026-06-10T12:03:29.404224,13.13470202,.0001986,87.8952,321.5548,94.0157,266.1199,0,U,48056,999,25266,.85164E-3,.324E-5,0
ONEWEB-0155,2021-025R,2026-06-10T04:54:39.086784,13.13469381,.0001725,87.8953,321.6103,100.6525,259.4799,0,U,48057,999,25276,.99079E-3,.375E-5,0
ONEWEB-0149,2021-025S,2026-06-10T03:36:38.952576,13.13469474,.00020239,87.8956,321.6242,93.6474,266.4887,0,U,48058,999,25256,-.36650778E-3,-.121E-5,0
ONEWEB-0148,2021-025T,2026-06-10T11:51:29.733696,13.13470668,.0002401,87.8949,321.5633,95.9626,264.1777,0,U,48059,999,25273,.31408E-3,.127E-5,0
ONEWEB-0160,2021-025U,2026-06-10T12:15:52.413984,13.13470714,.0001607,87.8950,321.5561,71.0727,289.0576,0,U,48060,999,25268,.92378E-3,.35E-5,0
ONEWEB-0163,2021-025V,2026-06-10T11:53:55.615776,13.13471150,.0001883,87.8955,321.5530,104.2297,255.9041,0,U,48061,999,25280,.49318E-3,.193E-5,0
ONEWEB-0159,2021-025W,2026-06-10T11:41:44.331360,13.13471004,.0001841,87.8959,321.5482,103.5090,256.6244,0,U,48062,999,25272,-.34372E-4,0,0
ONEWEB-0164,2021-025X,2026-06-10T03:56:08.151936,13.13469954,.0001756,87.8958,321.6187,93.3519,266.7811,0,U,48063,999,25266,-.99006E-3,-.349E-5,0
ONEWEB-0167,2021-025Y,2026-06-10T11:55:07.679424,13.13472468,.0001477,87.8946,321.5631,116.2106,243.9176,0,U,48064,999,25269,.38453E-3,.153E-5,0
ONEWEB-0166,2021-025Z,2026-06-10T12:28:02.783424,13.13471027,.0001999,87.8959,321.5293,96.9579,263.1778,0,U,48065,999,25277,.85441E-3,.325E-5,0
ONEWEB-0151,2021-025AA,2026-06-10T12:30:29.366208,13.13469547,.0001684,87.8948,321.5463,97.2684,262.8636,0,U,48066,999,25271,.77867E-3,.297E-5,0
ONEWEB-0170,2021-025AB,2026-06-10T03:34:11.976672,13.13469413,.00013859,87.8949,321.6223,87.6731,272.4556,0,U,48067,999,25262,-.23871456E-3,-.74E-6,0
ONEWEB-0168,2021-025AC,2026-06-10T05:01:57.679968,13.13469287,.000191,87.8958,321.6097,100.5366,259.5979,0,U,48068,999,25264,.7775E-3,.297E-5,0
ONEWEB-0173,2021-025AD,2026-06-10T12:08:33.464832,13.13470635,.0001799,87.8950,321.5528,107.9245,252.2080,0,U,48069,999,25292,.10613E-2,.4E-5,0
ONEWEB-0171,2021-025AE,2026-06-10T03:53:42.124704,13.13470163,.0001723,87.8947,321.6292,95.6177,264.5148,0,U,48070,999,25269,-.10998E-2,-.389E-5,0
ONEWEB-0172,2021-025AF,2026-06-09T23:45:03.347712,13.13470375,.00016966,87.8954,321.6533,99.8683,260.2638,0,U,48071,999,25356,.17656595E-3,.77E-6,0
ONEWEB-0174,2021-025AG,2026-06-10T04:47:20.959296,13.13470203,.0001974,87.8951,321.6111,97.0113,263.1240,0,U,48072,999,25291,.81851E-3,.312E-5,0
ONEWEB-0175,2021-025AH,2026-06-10T03:41:31.158240,13.13469555,.00014599,87.8959,321.6037,96.6125,263.5170,0,U,48073,999,25256,-.60731852E-3,-.209E-5,0
ONEWEB-0177,2021-025AJ,2026-06-10T03:58:34.491072,13.13470781,.0001984,87.8955,321.6200,100.1445,259.9908,0,U,48074,999,25275,-.96452E-3,-.339E-5,0
ONEWEB-0178,2021-025AK,2026-06-10T11:44:21.257088,13.13471990,.0001634,87.8939,321.5693,102.6380,257.4932,0,U,48075,999,25284,-.31316E-3,-.102E-5,0
ONEWEB-0108,2021-025AL,2026-06-10T03:26:53.448288,13.13469615,.00019403,87.8959,321.6157,89.0136,271.1216,0,U,48076,999,25272,.15073575E-3,.68E-6,0
ONEWEB-0169,2021-025AM,2026-06-10T11:31:59.043072,13.13470625,.0001945,87.8950,321.5572,96.5667,263.5683,0,U,48077,999,25142,-.46299E-3,-.156E-5,0
ONEWEB-0176,2021-031A,2026-06-10T07:52:53.094720,13.14503283,.0001826,87.8958,291.0664,102.9577,257.1757,0,U,48210,999,24741,.6423E-4,.37E-6,0
ONEWEB-0184,2021-031B,2026-06-10T07:14:03.281568,13.14502358,.0001266,87.8968,291.0720,120.9638,239.1617,0,U,48211,999,24738,-.27632E-3,-.9E-6,0
ONEWEB-0179,2021-031C,2026-06-10T06:51:56.741760,14.25518440,.0218635,87.8984,288.6338,279.9487,77.7093,0,U,48212,999,24806,.55453E-4,.185E-5,0
ONEWEB-0180,2021-031D,2026-06-10T07:18:37.624032,13.14502769,.0002032,87.8966,291.0676,113.2398,246.8946,0,U,48213,999,24731,-.42197E-3,-.144E-5,0
ONEWEB-0218,2021-031E,2026-06-10T07:50:35.710080,13.14502599,.0001546,87.8966,291.0622,128.4064,231.7204,0,U,48214,999,24747,-.16643E-4,.7E-7,0
ONEWEB-0209,2021-031F,2026-06-10T07:34:35.449248,13.14502859,.0002055,87.8957,291.0821,105.4429,254.6928,0,U,48215,999,24747,-.13132E-2,-.474E-5,0
ONEWEB-0198,2021-031G,2026-06-10T07:11:58.674624,13.14501949,.0001878,87.8951,291.0847,114.2546,245.8780,0,U,48216,999,24758,-.27941E-3,-.91E-6,0
ONEWEB-0189,2021-031H,2026-06-10T07:30:02.833056,13.14502751,.0001878,87.8961,291.0679,111.0755,249.0575,0,U,48217,999,24732,-.50812E-3,-.176E-5,0
